NORAD_CAT_ID,OBJECT_NAME,OBJECT_TYPE,EPOCH,MEAN_MOTION,ECCENTRICITY,INCLINATION,RA_OF_ASC_NODE,ARG_OF_PERICENTER,MEAN_ANOMALY,BSTAR,MEAN_MOTION_DOT,MEAN_MOTION_DDOT,TLE_LINE0,TLE_LINE1,TLE_LINE2,SEMIMAJOR_AXIS,PERIOD,APOGEE,PERIGEE,DECAYED
53425.0,STARLINK-4531,PAYLOAD,2023-01-26 14:21:48,15.08838897,0.000109,53.216,183.2167,88.4474,271.6643,4.0797e-05,3.62e-06,0.0,0 STARLINK-4531,1 53425U 22097AP  23026.59847456  .00000362  00000-0  40797-4 0  9992,2 53425  53.2160 183.2167 0001090  88.4474 271.6643 15.08838897 26803,6917.884,95.438,540.503,538.995,0.0
53425.0,STARLINK-4531,PAYLOAD,2023-01-26 15:57:11,15.08840483,0.0001095999999999,53.2161,182.9194,88.6307,271.481,5.3615e-05,5.66e-06,0.0,0 STARLINK-4531,1 53425U 22097AP  23026.66471318  .00000566  00000-0  53615-4 0  9999,2 53425  53.2161 182.9194 0001096  88.6307 271.4810 15.08840483 26362,6917.879,95.438,540.502,538.986,0.0
53425.0,STARLINK-4531,PAYLOAD,2023-01-27 14:12:35,15.08835759,9.93e-05,53.216,178.7563,90.086,270.0245,6.5431e-05,7.54e-06,0.0,0 STARLINK-4531,1 53425U 22097AP  23027.59207697  .00000754  00000-0  65431-4 0  9997,2 53425  53.2160 178.7563 0000993  90.0860 270.0245 15.08835759 26952,6917.893,95.438,540.445,539.071,0.0
53425.0,STARLINK-4531,PAYLOAD,2023-01-27 17:23:21,15.08842722,0.000129,53.2159,178.162,89.6406,270.4734,4.0682e-05,3.6000000000000003e-06,0.0,0 STARLINK-4531,1 53425U 22097AP  23027.72455379  .00000360  00000-0  40682-4 0  9998,2 53425  53.2159 178.1620 0001290  89.6406 270.4734 15.08842722 26527,6917.871999999999,95.437,540.629,538.845,0.0
53425.0,STARLINK-4531,PAYLOAD,2023-01-28 14:03:22,15.08838076,0.0001217,53.2172,174.2951,89.082,271.0312,4.281e-05,3.94e-06,0.0,0 STARLINK-4531,1 53425U 22097AP  23028.58567789  .00000394  00000-0  42810-4 0  9994,2 53425  53.2172 174.2951 0001217  89.0820 271.0312 15.08838076 26659,6917.886,95.438,540.593,538.909,0.0
53425.0,STARLINK-4531,PAYLOAD,2023-01-28 18:49:31,15.08844827,0.0001146,53.2163,173.4023,82.0648,278.0474,4.0839e-05,3.62e-06,0.0,0 STARLINK-4531,1 53425U 22097AP  23028.78439317  .00000362  00000-0  40839-4 0  9995,2 53425  53.2163 173.4023 0001146  82.0648 278.0474 15.08844827 27133,6917.866,95.437,540.523,538.938,0.0
53425.0,STARLINK-4531,PAYLOAD,2023-01-29 15:29:33,15.08837668,0.0001299,53.216,169.5376,78.9284,281.1854,-7.1002e-06,-4.01e-06,0.0,0 STARLINK-4531,1 53425U 22097AP  23029.64552147 -.00000401  00000-0 -71002-5 0  9991,2 53425  53.2160 169.5376 0001299  78.9284 281.1854 15.08837668 26812,6917.888,95.438,540.651,538.854,0.0
53425.0,STARLINK-4531,PAYLOAD,2023-01-30 12:09:33,15.08837852,0.0001166,53.2166,165.6718,80.5421,279.5703,6.9707e-05,8.22e-06,0.0,0 STARLINK-4531,1 53425U 22097AP  23030.50663914  .00000822  00000-0  69707-4 0  9996,2 53425  53.2166 165.6718 0001166  80.5421 279.5703 15.08837852 27393,6917.887,95.438,540.559,538.945,0.0
53425.0,STARLINK-4531,PAYLOAD,2023-01-31 02:28:01,15.08842446,0.000128,53.2167,162.9962,74.8178,285.2956,2.9018e-05,1.74e-06,0.0,0 STARLINK-4531,1 53425U 22097AP  23031.10279738  .00000174  00000-0  29018-4 0  9991,2 53425  53.2167 162.9962 0001280  74.8178 285.2956 15.08842446 27037,6917.873,95.437,540.623,538.852,0.0
53425.0,STARLINK-4531,PAYLOAD,2023-01-31 12:00:20,15.08842691,0.0001281,53.2165,161.2113,78.7851,281.3285,5.8143e-07,-2.79e-06,0.0,0 STARLINK-4531,1 53425U 22097AP  23031.50023809 -.00000279  00000-0  58143-6 0  9991,2 53425  53.2165 161.2113 0001281  78.7851 281.3285 15.08842691 27547,6917.872,95.437,540.623,538.851,0.0
53425.0,STARLINK-4531,PAYLOAD,2023-01-31 18:21:52,15.08847855,0.0001327,53.2154,160.0209,83.5688,276.5455,-2.7784e-06,-3.32e-06,0.0,0 STARLINK-4531,1 53425U 22097AP  23031.76519445 -.00000332  00000-0 -27784-5 0  9992,2 53425  53.2154 160.0209 0001327  83.5688 276.5455 15.08847855 27587,6917.856,95.437,540.639,538.803,0.0
53425.0,STARLINK-4531,PAYLOAD,2023-02-01 11:51:08,15.08795902,0.0001187,53.2145,156.7475,115.036,245.0756,0.00058068,8.955e-05,0.0,0 STARLINK-4531,1 53425U 22097AP  23032.49384981  .00008955  00000-0  58068-3 0  9992,2 53425  53.2145 156.7475 0001187 115.0360 245.0756 15.08795902 27249,6918.015,95.44,540.701,539.059,0.0
53425.0,STARLINK-4531,PAYLOAD,2023-02-01 13:26:31,15.08798957,0.0001174,53.2149,156.4501,115.493,244.6184,0.00055057,8.476e-05,0.0,0 STARLINK-4531,1 53425U 22097AP  23032.56009000  .00008476  00000-0  55057-3 0  9999,2 53425  53.2149 156.4501 0001174 115.4930 244.6184 15.08798957 27707,6918.006,95.44,540.683,539.059,0.0
53425.0,STARLINK-4531,PAYLOAD,2023-02-02 00:34:12,15.08837153,0.0001185,53.2155,154.3709,93.4105,266.7023,-3.4151e-06,-3.42e-06,0.0,0 STARLINK-4531,1 53425U 22097AP  23033.02376128 -.00000342  00000-0 -34151-5 0  9999,2 53425  53.2155 154.3709 0001185  93.4105 266.7023 15.08837153 27329,6917.889,95.438,540.574,538.934,0.0
53425.0,STARLINK-4531,PAYLOAD,2023-02-02 13:17:18,15.08837138,0.0001221,53.2169,151.9929,96.9271,263.186,3.451e-05,2.61e-06,0.0,0 STARLINK-4531,1 53425U 22097AP  23033.55368116  .00000261  00000-0  34510-4 0  9991,2 53425  53.2169 151.9929 0001221  96.9271 263.1860 15.08837138 27855,6917.889,95.438,540.599,538.909,0.0
53425.0,STARLINK-4531,PAYLOAD,2023-02-02 18:03:26,15.08844341,0.0001306,53.2164,151.1005,96.7723,263.3418,4.9314e-05,4.97e-06,0.0,0 STARLINK-4531,1 53425U 22097AP  23033.75239544  .00000497  00000-0  49314-4 0  9994,2 53425  53.2164 151.1005 0001306  96.7723 263.3418 15.08844341 27430,6917.867,95.437,540.636,538.829,0.0
53425.0,STARLINK-4531,PAYLOAD,2023-02-03 00:25:00,15.0882839,0.0001368,53.2153,149.9101,98.2697,261.845,-1.7399e-05,-5.65e-06,0.0,0 STARLINK-4531,1 53425U 22097AP  23034.01736871 -.00000565  00000-0 -17399-4 0  9995,2 53425  53.2153 149.9101 0001368  98.2697 261.8450 15.08828390 27474,6917.916,95.438,540.727,538.835,0.0
53425.0,STARLINK-4531,PAYLOAD,2023-02-03 09:57:20,15.08826544,0.0001401,53.2162,148.125,96.0463,264.0689,-6.7268e-05,-1.358e-05,0.0,0 STARLINK-4531,1 53425U 22097AP  23034.41481491 -.00001358  00000-0 -67268-4 0  9995,2 53425  53.2162 148.1250 0001401  96.0463 264.0689 15.08826544 27989,6917.922,95.438,540.756,538.817,0.0
53425.0,STARLINK-4531,PAYLOAD,2023-02-03 17:54:15,15.08834548,0.0001579,53.2144,146.639,87.5771,272.5401,1.7204e-05,-1.4e-07,0.0,0 STARLINK-4531,1 53425U 22097AP  23034.74600995 -.00000014  00000-0  17204-4 0  9995,2 53425  53.2144 146.6390 0001579  87.5771 272.5401 15.08834548 28036,6917.897,95.438,540.854,538.67,0.0
53425.0,STARLINK-4531,PAYLOAD,2023-02-04 06:37:19,15.08839078,0.0001439,53.215,144.2601,94.8218,265.2939,0.00010607,1.401e-05,0.0,0 STARLINK-4531,1 53425U 22097AP  23035.27592462  .00001401  00000-0  10607-3 0  9992,2 53425  53.2150 144.2601 0001439  94.8218 265.2939 15.08839078 27660,6917.883,95.438,540.744,538.753,0.0
53425.0,STARLINK-4531,PAYLOAD,2023-02-04 12:58:52,15.08842378,7.23e-05,53.2157,143.0721,82.0962,278.0112,9.4116e-05,1.211e-05,0.0,0 STARLINK-4531,1 53425U 22097AP  23035.54088221  .00001211  00000-0  94116-4 0  9992,2 53425  53.2157 143.0721 0000723  82.0962 278.0112 15.08842378 28154,6917.873,95.437,540.238,539.238,0.0
53425.0,STARLINK-4531,PAYLOAD,2023-02-04 14:34:15,15.08845976,8.67e-05,53.2157,142.7745,86.8625,273.2466,0.00013127,1.802e-05,0.0,0 STARLINK-4531,1 53425U 22097AP  23035.60711888  .00001802  00000-0  13127-3 0  9999,2 53425  53.2157 142.7745 0000867  86.8625 273.2466 15.08845976 28160,6917.862,95.437,540.327,539.127,0.0
53425.0,STARLINK-4531,PAYLOAD,2023-02-05 14:25:02,15.08842978,0.0001216,53.2158,138.3144,80.6474,279.4655,5.6781e-05,6.16e-06,0.0,0 STARLINK-4531,1 53425U 22097AP  23036.60072563  .00000616  00000-0  56781-4 0  9996,2 53425  53.2158 138.3144 0001216  80.6474 279.4655 15.08842978 27861,6917.871,95.437,540.577,538.895,0.0
53425.0,STARLINK-4531,PAYLOAD,2023-02-06 12:40:25,15.08856164,0.0001169,53.2164,134.149,88.35,271.7626,4.7658e-05,4.71e-06,0.0,0 STARLINK-4531,1 53425U 22097AP  23037.52807660  .00000471  00000-0  47658-4 0  9994,2 53425  53.2164 134.1490 0001169  88.3500 271.7626 15.08856164 28459,6917.831,95.437,540.505,538.887,0.0
53425.0,STARLINK-4531,PAYLOAD,2023-02-07 06:09:40,15.08839711,0.0001389,53.2155,130.88,83.5316,276.5835,8.361e-05,1.043e-05,0.0,0 STARLINK-4531,1 53425U 22097AP  23038.25672316  .00001043  00000-0  83610-4 0  9997,2 53425  53.2155 130.8800 0001389  83.5316 276.5835 15.08839711 28110,6917.881,95.438,540.707,538.785,0.0
53425.0,STARLINK-4531,PAYLOAD,2023-02-07 12:31:12,15.08853431,0.0001307,53.2157,129.689,85.9813,274.1329,0.00011288,1.51e-05,0.0,0 STARLINK-4531,1 53425U 22097AP  23038.52167311  .00001510  00000-0  11288-3 0  9991,2 53425  53.2157 129.6890 0001307  85.9813 274.1329 15.08853431 28156,6917.839,95.437,540.608,538.8,0.0
53425.0,STARLINK-4531,PAYLOAD,2023-02-08 12:22:00,15.08843428,0.0001161,53.2152,125.2294,93.6169,266.4956,-1.9299e-05,-5.95e-06,0.0,0 STARLINK-4531,1 53425U 22097AP  23039.51528304 -.00000595  00000-0 -19299-4 0  9999,2 53425  53.2152 125.2294 0001161  93.6169 266.4956 15.08843428 28301,6917.87,95.437,540.538,538.932,0.0
53425.0,STARLINK-4531,PAYLOAD,2023-02-09 05:51:15,15.0883026,0.0001229,53.2154,121.959,77.2047,282.9082,-1.8529e-05,-5.83e-06,0.0,0 STARLINK-4531,1 53425U 22097AP  23040.24393346 -.00000583  00000-0 -18529-4 0  9999,2 53425  53.2154 121.9590 0001229  77.2047 282.9082 15.08830260 28418,6917.91,95.438,540.625,538.925,0.0
53425.0,STARLINK-4531,PAYLOAD,2023-02-09 10:37:24,15.08835326,0.0001467,53.2166,121.0662,66.7631,293.3515,4.0163e-05,3.51e-06,0.0,0 STARLINK-4531,1 53425U 22097AP  23040.44264964  .00000351  00000-0  40163-4 0  9994,2 53425  53.2166 121.0662 0001467  66.7631 293.3515 15.08835326 28895,6917.895,95.438,540.775,538.745,0.0
53425.0,STARLINK-4531,PAYLOAD,2023-02-09 12:12:46,15.08852919,0.0001182,53.2166,120.7657,105.3156,254.7966,1.9966e-05,3e-07,0.0,0 STARLINK-4531,1 53425U 22097AP  23040.50887692  .00000030  00000-0  19966-4 0  9991,2 53425  53.2166 120.7657 0001182 105.3156 254.7966 15.08852919 28451,6917.841,95.437,540.524,538.888,0.0
